{"type": "FeatureCollection", "features": [ {"type": "Feature", "properties": {"norad_id": 30501, "name": "FENGYUN 1C DEB", "group": "fengyun-1c-debris", "lat": -29.100524578505805, "lon": 163.47995897443695, "alt_km": 789.7601942258907, "timestamp": "2025-12-23T09:49:07.359898+00:00", "meta": {"OBJECT_NAME": "FENGYUN 1C DEB", "OBJECT_ID": "1999-025AHP", "EPOCH": "2025-12-22T22:59:32.546976", "MEAN_MOTION": 14.25408329, "ECCENTRICITY": 0.0040695, "INCLINATION": 99.0849, "RA_OF_ASC_NODE": 348.1225, "ARG_OF_PERICENTER": 172.9635, "MEAN_ANOMALY": 242.6519, "EPHEMERIS_TYPE": 0, "CLASSIFICATION_TYPE": "U", "NORAD_CAT_ID": 30501, "ELEMENT_SET_NO": 999, "REV_AT_EPOCH": 97065, "BSTAR": 0.001491534, "MEAN_MOTION_DOT": 3.503e-05, "MEAN_MOTION_DDOT": 0}, "tle": {"line1": "1 30501U 99025AHP 25356.95801559  .00003503  00000+0  14915-2 0  9999", "line2": "2 30501  99.0849 348.1225 0040695 172.9635 242.6519 14.25408329970656"}}, "geometry": {"type": "Point", "coordinates": [163.47995897443695, -29.100524578505805]}}, {"type": "Feature", "properties": {"norad_id": 30503, "name": "FENGYUN 1C DEB", "group": "fengyun-1c-debris", "lat": 68.35088279213491, "lon": 177.17350812214528, "alt_km": 837.5176323356864, "timestamp": "2025-12-23T09:49:07.359908+00:00", "meta": {"OBJECT_NAME": "FENGYUN 1C DEB", "OBJECT_ID": "1999-025AHR", "EPOCH": "2025-12-22T20:00:55.325088", "MEAN_MOTION": 14.16135476, "ECCENTRICITY": 0.00083137, "INCLINATION": 99.204, "RA_OF_ASC_NODE": 200.6897, "ARG_OF_PERICENTER": 235.7208, "MEAN_ANOMALY": 144.1738, "EPHEMERIS_TYPE": 0, "CLASSIFICATION_TYPE": "U", "NORAD_CAT_ID": 30503, "ELEMENT_SET_NO": 999, "REV_AT_EPOCH": 97489, "BSTAR": 0.00024535637, "MEAN_MOTION_DOT": 4.38e-06, "MEAN_MOTION_DDOT": 0}, "tle": {"line1": "1 30503U 99025AHR 25356.83397367  .00000438  00000+0  24536-3 0  9990", "line2": "2 30503  99.2040 200.6897 0008313 235.7208 144.1738 14.16135476974894"}}, "geometry": {"type": "Point", "coordinates": [177.17350812214528, 68.35088279213491]}}, {"type": "Feature", "properties": {"norad_id": 30504, "name": "FENGYUN 1C DEB", "group": "fengyun-1c-debris", "lat": 80.95502987967626, "lon": -42.86143702383885, "alt_km": 824.5077683562076, "timestamp": "2025-12-23T09:49:07.359919+00:00", "meta": {"OBJECT_NAME": "FENGYUN 1C DEB", "OBJECT_ID": "1999-025AHS", "EPOCH": "2025-12-21T01:44:57.568992", "MEAN_MOTION": 14.20513799, "ECCENTRICITY": 0.01125381, "INCLINATION": 99.0243, "RA_OF_ASC_NODE": 41.4256, "ARG_OF_PERICENTER": 192.7134, "MEAN_ANOMALY": 197.6009, "EPHEMERIS_TYPE": 0, "CLASSIFICATION_TYPE": "U", "NORAD_CAT_ID": 30504, "ELEMENT_SET_NO": 999, "REV_AT_EPOCH": 97512, "BSTAR": 0.00041208941, "MEAN_MOTION_DOT": 8.97e-06, "MEAN_MOTION_DDOT": 0}, "tle": {"line1": "1 30504U 99025AHS 25355.07288853  .00000897  00000+0  41209-3 0  9990", "line2": "2 30504  99.0243  41.4256 0112538 192.7134 197.6009 14.20513799975127"}}, "geometry": {"type": "Point", "coordinates": [-42.86143702383885, 80.95502987967626]}}, {"type": "Feature", "properties": {"norad_id": 30505, "name": "FENGYUN 1C DEB", "group": "fengyun-1c-debris", "lat": 49.64420510097939, "lon": 66.53983451536169, "alt_km": 857.4020038142771, "timestamp": "2025-12-23T09:49:07.359929+00:00", "meta": {"OBJECT_NAME": "FENGYUN 1C DEB", "OBJECT_ID": "1999-025AHT", "EPOCH": "2025-12-22T17:25:02.326368", "MEAN_MOTION": 14.2210264, "ECCENTRICITY": 0.00642159, "INCLINATION": 98.9253, "RA_OF_ASC_NODE": 76.5059, "ARG_OF_PERICENTER": 213.748, "MEAN_ANOMALY": 300.3235, "EPHEMERIS_TYPE": 0, "CLASSIFICATION_TYPE": "U", "NORAD_CAT_ID": 30505, "ELEMENT_SET_NO": 999, "REV_AT_EPOCH": 97065, "BSTAR": 0.001548149, "MEAN_MOTION_DOT": 3.456e-05, "MEAN_MOTION_DDOT": 0}, "tle": {"line1": "1 30505U 99025AHT 25356.72572137  .00003456  00000+0  15481-2 0  9991", "line2": "2 30505  98.9253  76.5059 0064215 213.7480 300.3235 14.22102640970651"}}, "geometry": {"type": "Point", "coordinates": [66.53983451536169, 49.64420510097939]}}, {"type": "Feature", "properties": {"norad_id": 30506, "name": "FENGYUN 1C DEB", "group": "fengyun-1c-debris", "lat": -73.35606114156613, "lon": 33.21151451754596, "alt_km": 828.8963253761576, "timestamp": "2025-12-23T09:49:07.359939+00:00", "meta": {"OBJECT_NAME": "FENGYUN 1C DEB", "OBJECT_ID": "1999-025AHU", "EPOCH": "2025-12-22T06:58:22.771776", "MEAN_MOTION": 14.08661555, "ECCENTRICITY": 0.00698907, "INCLINATION": 98.7567, "RA_OF_ASC_NODE": 1.0891, "ARG_OF_PERICENTER": 320.8642, "MEAN_ANOMALY": 54.4898, "EPHEMERIS_TYPE": 0, "CLASSIFICATION_TYPE": "U", "NORAD_CAT_ID": 30506, "ELEMENT_SET_NO": 999, "REV_AT_EPOCH": 96956, "BSTAR": 0.00030594674, "MEAN_MOTION_DOT": 4.95e-06, "MEAN_MOTION_DDOT": 0}, "tle": {"line1": "1 30506U 99025AHU 25356.29054134  .00000495  00000+0  30595-3 0  9990", "line2": "2 30506  98.7567   1.0891 0069890 320.8642  54.4898 14.08661555969568"}}, "geometry": {"type": "Point", "coordinates": [33.21151451754596, -73.35606114156613]}}, {"type": "Feature", "properties": {"norad_id": 30507, "name": "FENGYUN 1C DEB", "group": "fengyun-1c-debris", "lat": -36.75301329882585, "lon": -124.83709123657029, "alt_km": 822.9622202525616, "timestamp": "2025-12-23T09:49:07.359949+00:00", "meta": {"OBJECT_NAME": "FENGYUN 1C DEB", "OBJECT_ID": "1999-025AHV", "EPOCH": "2025-12-22T11:18:45.124704", "MEAN_MOTION": 14.13218957, "ECCENTRICITY": 0.01284187, "INCLINATION": 99.0129, "RA_OF_ASC_NODE": 61.0259, "ARG_OF_PERICENTER": 149.106, "MEAN_ANOMALY": 338.4187, "EPHEMERIS_TYPE": 0, "CLASSIFICATION_TYPE": "U", "NORAD_CAT_ID": 30507, "ELEMENT_SET_NO": 999, "REV_AT_EPOCH": 96635, "BSTAR": 0.00099570229, "MEAN_MOTION_DOT": 1.972e-05, "MEAN_MOTION_DDOT": 0}, "tle": {"line1": "1 30507U 99025AHV 25356.47135561  .00001972  00000+0  99570-3 0  9994", "line2": "2 30507  99.0129  61.0259 0128418 149.1060 338.4187 14.13218957966359"}}, "geometry": {"type": "Point", "coordinates": [-124.83709123657029, -36.75301329882585]}}, {"type": "Feature", "properties": {"norad_id": 30509, "name": "FENGYUN 1C DEB", "group": "fengyun-1c-debris", "lat": 2.4964836881480807, "lon": 48.96191352360396, "alt_km": 929.4421112405698, "timestamp": "2025-12-23T09:49:07.359959+00:00", "meta": {"OBJECT_NAME": "FENGYUN 1C DEB", "OBJECT_ID": "1999-025AHX", "EPOCH": "2025-12-22T09:57:09.685152", "MEAN_MOTION": 14.0771344, "ECCENTRICITY": 0.01023458, "INCLINATION": 98.4652, "RA_OF_ASC_NODE": 227.6575, "ARG_OF_PERICENTER": 36.2478, "MEAN_ANOMALY": 143.7539, "EPHEMERIS_TYPE": 0, "CLASSIFICATION_TYPE": "U", "NORAD_CAT_ID": 30509, "ELEMENT_SET_NO": 999, "REV_AT_EPOCH": 95858, "BSTAR": 0.0021282771, "MEAN_MOTION_DOT": 3.738e-05, "MEAN_MOTION_DDOT": 0}, "tle": {"line1": "1 30509U 99025AHX 25356.41469543  .00003738  00000+0  21283-2 0  9997", "line2": "2 30509  98.4652 227.6575 0102345  36.2478 143.7539 14.07713440958580"}}, "geometry": {"type": "Point", "coordinates": [48.96191352360396, 2.4964836881480807]}}, {"type": "Feature", "properties": {"norad_id": 30510, "name": "FENGYUN 1C DEB", "group": "fengyun-1c-debris", "lat": 64.10842070215004, "lon": -9.825280436466718, "alt_km": 824.0210691560333, "timestamp": "2025-12-23T09:49:07.359972+00:00", "meta": {"OBJECT_NAME": "FENGYUN 1C DEB", "OBJECT_ID": "1999-025AHY", "EPOCH": "2025-12-22T12:10:34.360032", "MEAN_MOTION": 14.12895684, "ECCENTRICITY": 0.00787389, "INCLINATION": 99.2442, "RA_OF_ASC_NODE": 8.8484, "ARG_OF_PERICENTER": 139.0565, "MEAN_ANOMALY": 23.2764, "EPHEMERIS_TYPE": 0, "CLASSIFICATION_TYPE": "U", "NORAD_CAT_ID": 30510, "ELEMENT_SET_NO": 999, "REV_AT_EPOCH": 96712, "BSTAR": 0.001391975, "MEAN_MOTION_DOT": 2.622e-05, "MEAN_MOTION_DDOT": 0}, "tle": {"line1": "1 30510U 99025AHY 25356.50734213  .00002622  00000+0  13920-2 0  9998", "line2": "2 30510  99.2442   8.8484 0078738 139.0565  23.2764 14.12895684967122"}}, "geometry": {"type": "Point", "coordinates": [-9.825280436466718, 64.10842070215004]}}, {"type": "Feature", "properties": {"norad_id": 30514, "name": "FENGYUN 1C DEB", "group": "fengyun-1c-debris", "lat": -44.748272878953834, "lon": 29.095156796812173, "alt_km": 819.9388937626709, "timestamp": "2025-12-23T09:49:07.359986+00:00", "meta": {"OBJECT_NAME": "FENGYUN 1C DEB", "OBJECT_ID": "1999-025AJC", "EPOCH": "2025-12-22T12:15:55.234080", "MEAN_MOTION": 14.34385696, "ECCENTRICITY": 0.01742539, "INCLINATION": 98.412, "RA_OF_ASC_NODE": 19.7859, "ARG_OF_PERICENTER": 65.1937, "MEAN_ANOMALY": 296.7263, "EPHEMERIS_TYPE": 0, "CLASSIFICATION_TYPE": "U", "NORAD_CAT_ID": 30514, "ELEMENT_SET_NO": 999, "REV_AT_EPOCH": 98365, "BSTAR": 0.00043011803, "MEAN_MOTION_DOT": 1.39e-05, "MEAN_MOTION_DDOT": 0}, "tle": {"line1": "1 30514U 99025AJC 25356.51105595  .00001390  00000+0  43012-3 0  9995", "line2": "2 30514  98.4120  19.7859 0174253  65.1937 296.7263 14.34385696983656"}}, "geometry": {"type": "Point", "coordinates": [29.095156796812173, -44.748272878953834]}}, {"type": "Feature", "properties": {"norad_id": 30515, "name": "FENGYUN 1C DEB", "group": "fengyun-1c-debris", "lat": -63.58523606072375, "lon": -110.17734583402235, "alt_km": 1146.1875109313878, "timestamp": "2025-12-23T09:49:07.359997+00:00", "meta": {"OBJECT_NAME": "FENGYUN 1C DEB", "OBJECT_ID": "1999-025AJD", "EPOCH": "2025-12-22T14:54:00.008352", "MEAN_MOTION": 13.63824289, "ECCENTRICITY": 0.0497006, "INCLINATION": 98.5092, "RA_OF_ASC_NODE": 231.5885, "ARG_OF_PERICENTER": 48.4976, "MEAN_ANOMALY": 343.8486, "EPHEMERIS_TYPE": 0, "CLASSIFICATION_TYPE": "U", "NORAD_CAT_ID": 30515, "ELEMENT_SET_NO": 999, "REV_AT_EPOCH": 93465, "BSTAR": 0.00093199811, "MEAN_MOTION_DOT": 1.683e-05, "MEAN_MOTION_DDOT": 0}, "tle": {"line1": "1 30515U 99025AJD 25356.62083343  .00001683  00000+0  93200-3 0  9993", "line2": "2 30515  98.5092 231.5885 0497006  48.4976 343.8486 13.63824289934654"}}, "geometry": {"type": "Point", "coordinates": [-110.17734583402235, -63.58523606072375]}}]}